ASIASAT 6               
1 40141U 14052A   17239.47132819 -.00000383  00000-0  00000-0 0  9994
2 40141   0.0546 288.4440 0001112 175.7479 161.2701  1.00271715 10814
OPTUS 10                
1 40146U 14054A   17238.61377899 -.00000097  00000-0  00000-0 0  9997
2 40146   0.0673 298.7188 0001418 211.0249 210.2564  1.00273037 10788
MEASAT-3B               
1 40147U 14054B   17238.81461746 -.00000264  00000-0  00000-0 0  9991
2 40147   0.0356 353.6384 0000922 110.0746 256.2896  1.00270813 10658
LUCH (OLYMP)            
1 40258U 14058A   17239.15047859  .00000134  00000-0  00000-0 0  9996
2 40258   0.0609 274.8468 0000627 173.9174 333.6706  1.00272896 10691
HIMAWARI-8              
1 40267U 14060A   17238.67845838 -.00000298  00000-0  00000-0 0  9990
2 40267   0.0397 264.7676 0000659 251.6378 203.5897  1.00271661 10515
IRNSS-1C                
1 40269U 14061A   17238.52397700 -.00000185  00000-0  00000-0 0  9992
2 40269   2.8943 246.9135 0020451   4.3986 355.2360  1.00275518 10566
INTELSAT 30 (IS-30)     
1 40271U 14062A   17239.21987267 -.00000171  00000-0  00000-0 0  9991
2 40271   0.0190 127.3499 0002181 314.9447 237.4441  1.00272750 10443
ARSAT 1                 
1 40272U 14062B   17239.57129244 -.00000279  00000-0  00000-0 0  9993
2 40272   0.0150 188.6228 0001087 324.4061 316.8188  1.00272651 10374
EXPRESS-AM6             
1 40277U 14064A   17239.45879248  .00000077  00000-0  00000-0 0  9998
2 40277   0.0552 290.2599 0000120  30.5501 233.2148  1.00272050  9343
GSAT-16                 
1 40332U 14078A   17238.91568521  .00000063  00000-0  00000-0 0  9999
2 40332   0.0461 284.4156 0006269 175.5766 260.0710  1.00274632  9881
DIRECTV 14              
1 40333U 14078B   17239.29377141 -.00000146  00000-0  00000-0 0  9991
2 40333   0.0466 296.2407 0001245  63.1325 342.8583  1.00273012  9911
YAMAL 401               
1 40345U 14082A   17239.22815495 -.00000249  00000-0  00000-0 0  9995
2 40345   0.0245 147.5421 0000339 101.7050 258.4642  1.00271437 10166
ASTRA 2G                
1 40364U 14089A   17238.99005652  .00000128  00000-0  00000-0 0  9997
2 40364   0.0139 347.4447 0003513 103.5539 269.0417  1.00267710  9724
FENGYUN 2G              
1 40367U 14090A   17239.53591184 -.00000350  00000-0  00000-0 0  9991
2 40367   0.3045 245.0585 0003454  21.1766   7.3493  1.00273258  9791
INMARSAT 5-F2           
1 40384U 15005A   17239.19285469 -.00000306  00000-0  00000-0 0  9996
2 40384   0.0195 137.6224 0000863 289.8052 282.6193  1.00269786  9427
ABS-3A                  
1 40424U 15010A   17238.07910747 -.00000050  00000-0  00000+0 0  9992
2 40424   0.0131 106.4570 0002081 332.2099 281.3471  1.00269497  9152
EUTELSAT 115 WEST B     
1 40425U 15010B   17239.38628171 -.00000045  00000-0  00000-0 0  9990
2 40425   0.0006  48.5879 0000199 166.1919 145.2189  1.00270185  9155
EXPRESS-AM7             
1 40505U 15012A   17239.53799242  .00000130  00000-0  00000-0 0  9990
2 40505   0.0111 123.9235 0002229  31.0322  54.6440  1.00273190  9117
IRNSS-1D                
1 40547U 15018A   17238.57539183 -.00000314  00000-0  00000-0 0  9996
2 40547  28.9420 293.9170 0020784 184.8111 175.2252  1.00276571  8745
BEIDOU I1-S             
1 40549U 15019A   17239.17622560 -.00000191  00000-0  00000-0 0  9991
2 40549  54.3307 332.9659 0042752 188.4516 333.5578  1.00279804  8830
THOR 7                  
1 40613U 15022A   17239.06990166 -.00000030  00000-0  00000-0 0  9997
2 40613   0.0322 238.4654 0002673 268.7371 212.8071  1.00271110  8582
TURKMENALEM52E/MONACOSAT
1 40617U 15023A   17238.92405054  .00000082  00000-0  00000-0 0  9999
2 40617   0.0146  98.3810 0002304  57.1195 204.5032  1.00273750  8590
DIRECTV 15              
1 40663U 15026A   17239.35267606 -.00000124  00000-0  00000-0 0  9998
2 40663   0.0126 112.7018 0000417 117.4781 129.8101  1.00273435  8275
SKY MEXICO-1            
1 40664U 15026B   17239.28637526 -.00000255  00000-0  00000-0 0  9998
2 40664   0.0158 158.5251 0002182 353.4943 207.9858  1.00272654  8292
METEOSAT-11 (MSG-4)     
1 40732U 15034A   17238.73422456 -.00000048  00000-0  00000-0 0  9996
2 40732   1.7076 236.9465 0001106 315.7582  43.5316  1.00277205  7792
STAR ONE C4             
1 40733U 15034B   17239.26200991 -.00000285  00000-0  00000-0 0  9997
2 40733   0.0128 338.3614 0000728 141.3640 240.2818  1.00271322  7790
INTELSAT 34 (IS-34)     
1 40874U 15039A   17239.22185283 -.00000306  00000-0  00000-0 0  9994
2 40874   0.0159 142.0718 0000871 270.8905 307.0456  1.00271115  7437
EUTELSAT 8 WEST B       
1 40875U 15039B   17239.09026733 -.00000087  00000-0  00000-0 0  9990
2 40875   0.0735  34.8563 0002199 120.1030 205.0445  1.00272534  7447
GSAT-6                  
1 40880U 15041A   17238.83789384 -.00000187  00000-0  00000-0 0  9999
2 40880   0.1021 100.4646 0007444 157.3387 102.1063  1.00272055  7406
INMARSAT 5-F3           
1 40882U 15042A   17238.57053889  .00000028  00000-0  00000-0 0  9990
2 40882   0.0121 133.1576 0000419 273.6374 313.2003  1.00272495  7302
TJS-1                   
1 40892U 15046A   17239.61772663 -.00000176  00000-0  00000-0 0  9994
2 40892   0.0398 159.8973 0003174 180.6978  12.8464  1.00273808  7305
EXPRESS-AM8             
1 40895U 15048A   17237.89215953 -.00000136  00000-0  00000+0 0  9996
2 40895   0.0222 257.9391 0000673  44.4686 339.0780  1.00271334  7118
BEIDOU I2-S             
1 40938U 15053A   17239.34102596 -.00000138  00000-0  00000-0 0  9993
2 40938  54.1054 295.8699 0048514 176.8272  82.0432  1.00278831  7116
SKY MUSTER (NBN1A)      
1 40940U 15054A   17238.67961922 -.00000301  00000-0  00000-0 0  9990
2 40940   0.0212 227.8435 0001694 278.6401 213.5192  1.00273149  7044
ARSAT 2                 
1 40941U 15054B   17239.29249383 -.00000245  00000-0  00000-0 0  9997
2 40941   0.0103 155.4439 0001537 343.5456 221.0156  1.00273047  7076
MORELOS 3               
1 40946U 15056A   17239.29657442 -.00000061  00000-0  00000-0 0  9999
2 40946   6.3336 329.3197 0003276 186.8919 173.1626  1.00272927  7047
APSTAR 9                
1 40982U 15059A   17238.67465084 -.00000288  00000-0  00000-0 0  9993
2 40982   0.0411 244.4952 0000440 326.7119 148.7823  1.00272069  6914
TURKSAT 4B              
1 40984U 15060A   17238.92964929  .00000094  00000-0  00000-0 0  9991
2 40984   0.0100 212.4113 0002231 297.2024 210.3992  1.00267247  6872
CHINASAT 2C (ZX 2C)     
1 41021U 15063A   17238.57688314 -.00000346  00000-0  00000-0 0  9990
2 41021   0.0540 280.3102 0002069 358.5389   7.2324  1.00269165  6759
GSAT-15                 
1 41028U 15065A   17238.80914451 -.00000280  00000-0  00000-0 0  9996
2 41028   0.0638 265.8868 0001180 211.0124 243.1051  1.00273388  6596
BADR-7 (ARABSAT-6B)     
1 41029U 15065B   17238.99602462  .00000123  00000-0  00000-0 0  9998
2 41029   0.0569 260.9510 0003878 318.6096 140.4040  1.00270503  6502
LAOSAT 1                
1 41034U 15067A   17238.71211272 -.00000365  00000-0  00000-0 0  9990
2 41034   0.0080 123.2235 0002583  66.5368 170.2270  1.00273514  6628
TELSTAR 12V             
1 41036U 15068A   17239.10967208 -.00000140  00000-0  00000-0 0  9995
2 41036   0.0108 117.0608 0001762  29.4801 213.4634  1.00272453  6382
CHINASAT 1C (ZX 1C)     
1 41103U 15073A   17239.52893233 -.00000170  00000-0  00000-0 0  9991
2 41103   0.0184 249.1075 0002879  14.0506 344.6633  1.00269855  6421
ELEKTRO-L 2             
1 41105U 15074A   17239.60045910 -.00000117  00000-0  00000-0 0  9995
2 41105   0.0280  38.8197 0002113 221.5542   7.8389  1.00271247  6271
COSMOS 2513             
1 41121U 15075A   17238.97966087 -.00000159  00000-0  00000-0 0  9996
2 41121   0.0655 119.6009 0003506  70.7114 217.9917  1.00270851  6351
EXPRESS-AMU1            
1 41191U 15082A   17239.59532226  .00000135  00000-0  00000-0 0  9997
2 41191   0.0138 177.8252 0001882 325.8653  82.7237  1.00269567  6262
GAOFEN 4                
1 41194U 15083A   17239.17877190 -.00000356  00000-0  00000-0 0  9993
2 41194   0.0236 137.0348 0005041  96.1230 272.5071  1.00269734  6247
BELINTERSAT-1           
1 41238U 16001A   17239.41643120  .00000086  00000-0  00000-0 0  9993
2 41238   0.0699 282.5375 0001470 193.6283  61.0871  1.00274183  6027
IRNSS-1E                
1 41241U 16003A   17238.07574969 -.00000307  00000-0  00000-0 0  9991
2 41241  28.8899 113.4859 0017931 182.3605 177.7259  1.00279059  5944
INTELSAT 29E (IS-29E)   
1 41308U 16004A   17239.20661209 -.00000303  00000-0  00000-0 0  9992
2 41308   0.0534 276.3466 0001744 231.6162 212.0410  1.00271943  5913
EUTELSAT 9B             
1 41310U 16005A   17239.04310500  .00000041  00000-0  00000-0 0  9991
2 41310   0.0661 102.4039 0002676 158.0994  99.4595  1.00273724  5877
SES-9                   
1 41380U 16013A   17238.76812638 -.00000367  00000-0  00000-0 0  9996
2 41380   0.0199 268.1615 0001409 222.4365 229.4143  1.00269889  5254
EUTELSAT 65 WEST A      
1 41382U 16014A   17239.24874272 -.00000297  00000-0  00000-0 0  9997
2 41382   0.0518 350.0014 0001574 159.8585 210.1426  1.00274681  5320
IRNSS-1F                
1 41384U 16015A   17238.70989049  .00000135  00000-0  00000-0 0  9999
2 41384   4.0171 263.3460 0020580 187.7517 172.0101  1.00272464  5441
BEIDOU IGSO 6           
1 41434U 16021A   17239.26711247 -.00000126  00000-0  10000-3 0  9992
2 41434  55.6409  71.6148 0031216 177.6310 276.4699  1.00293132  5247
IRNSS-1G                
1 41469U 16027A   17239.44197263 -.00000357  00000-0  00000-0 0  9994
2 41469   4.0870 264.7355 0004084 208.3459 151.4446  1.00270414  4956
JCSAT 2B                
1 41471U 16028A   17238.64151697 -.00000188  00000-0  00000-0 0  9992
2 41471   0.0212 136.2495 0001835  13.0698 210.6915  1.00269948  4836
THAICOM 8               
1 41552U 16031A   17238.85059562 -.00000144  00000-0  00000-0 0  9999
2 41552   0.0694  56.7318 0002300   9.4981 293.7867  1.00272297  4482
